start=new Date('2023-03-03T00:00:00.000Z').valueOf();
sats=[{"FILE":"3849487","ELEMENT_SET_NO":"999","MEAN_ELEMENT_THEORY":"SGP4","NORAD_CAT_ID":"53424","CLASSIFICATION_TYPE":"U","CENTER_NAME":"EARTH","ARG_OF_PERICENTER":"65.2995","PERIAPSIS":"538.561","LAUNCH_DATE":"2022-08-10","TLE_LINE2":"2 53424  53.2171  27.4410 0001440  65.2995 294.8147 15.08901692 32070","RCS_SIZE":"LARGE","INCLINATION":"53.2171","TIME_SYSTEM":"UTC","OBJECT_NAME":"STARLINK-4532","REV_AT_EPOCH":"3207","ECCENTRICITY":"0.00014400","MEAN_MOTION_DDOT":"0.0000000000000","REF_FRAME":"TEME","MEAN_MOTION_DOT":"0.00041411","EPHEMERIS_TYPE":"0","OBJECT_TYPE":"PAYLOAD","SITE":"AFETR","TLE_LINE1":"1 53424U 22097AN  23061.29723706  .00041411  00000-0  26004-2 0  9991","PERIOD":"95.434","BSTAR":"0.00260040000000","APOAPSIS":"540.553","COUNTRY_CODE":"US","SEMIMAJOR_AXIS":"6917.692","RA_OF_ASC_NODE":"27.4410","EPOCH":"2023-03-02T07:08:01.281984","MEAN_ANOMALY":"294.8147","OBJECT_ID":"2022-097AN","DECAY_DATE":null,"GP_ID":"227363137","MEAN_MOTION":"15.08901692"},{"EPHEMERIS_TYPE":"0","MEAN_MOTION_DOT":"0.00033579","REF_FRAME":"TEME","BSTAR":"0.00211710000000","PERIOD":"95.437","TLE_LINE1":"1 53425U 22097AP  23061.17581194  .00033579  00000-0  21171-2 0  9998","SITE":"AFETR","OBJECT_TYPE":"PAYLOAD","MEAN_MOTION":"15.08853693","GP_ID":"227363387","DECAY_DATE":null,"OBJECT_ID":"2022-097AP","MEAN_ANOMALY":"285.4674","EPOCH":"2023-03-02T04:13:10.151616","RA_OF_ASC_NODE":"27.9890","COUNTRY_CODE":"US","SEMIMAJOR_AXIS":"6917.839","APOAPSIS":"540.817","FILE":"3849487","NORAD_CAT_ID":"53425","MEAN_ELEMENT_THEORY":"SGP4","ELEMENT_SET_NO":"999","ARG_OF_PERICENTER":"74.6496","CENTER_NAME":"EARTH","CLASSIFICATION_TYPE":"U","MEAN_MOTION_DDOT":"0.0000000000000","ECCENTRICITY":"0.00016100","REV_AT_EPOCH":"3202","RCS_SIZE":"LARGE","INCLINATION":"53.2165","OBJECT_NAME":"STARLINK-4531","TIME_SYSTEM":"UTC","LAUNCH_DATE":"2022-08-10","TLE_LINE2":"2 53425  53.2165  27.9890 0001610  74.6496 285.4674 15.08853693 32023","PERIAPSIS":"538.590"},{"FILE":"3849487","NORAD_CAT_ID":"53426","MEAN_ELEMENT_THEORY":"SGP4","ELEMENT_SET_NO":"999","CENTER_NAME":"EARTH","ARG_OF_PERICENTER":"89.7352","CLASSIFICATION_TYPE":"U","MEAN_MOTION_DDOT":"0.0000000000000","ECCENTRICITY":"0.00013820","REV_AT_EPOCH":"3226","RCS_SIZE":"LARGE","INCLINATION":"53.2194","TIME_SYSTEM":"UTC","OBJECT_NAME":"STARLINK-4558","TLE_LINE2":"2 53426  53.2194  15.9053 0001382  89.7352 270.3799 15.08853538 32263","LAUNCH_DATE":"2022-08-10","PERIAPSIS":"538.748","EPHEMERIS_TYPE":"0","MEAN_MOTION_DOT":"0.00009278","REF_FRAME":"TEME","PERIOD":"95.437","BSTAR":"0.00060002000000","SITE":"AFETR","TLE_LINE1":"1 53426U 22097AQ  23061.67353294  .00009278  00000-0  60002-3 0  9998","OBJECT_TYPE":"PAYLOAD","MEAN_MOTION":"15.08853538","DECAY_DATE":null,"GP_ID":"227364131","OBJECT_ID":"2022-097AQ","MEAN_ANOMALY":"270.3799","EPOCH":"2023-03-02T16:09:53.246016","RA_OF_ASC_NODE":"15.9053","SEMIMAJOR_AXIS":"6917.839","COUNTRY_CODE":"US","APOAPSIS":"540.660"},{"COUNTRY_CODE":"US","SEMIMAJOR_AXIS":"6917.731","APOAPSIS":"540.527","EPOCH":"2023-03-02T04:02:33.422496","RA_OF_ASC_NODE":"28.0260","OBJECT_ID":"2022-097AR","MEAN_ANOMALY":"295.0085","MEAN_MOTION":"15.08888788","DECAY_DATE":null,"GP_ID":"227364389","OBJECT_TYPE":"PAYLOAD","PERIOD":"95.434","BSTAR":"0.00258470000000","SITE":"AFETR","TLE_LINE1":"1 53427U 22097AR  23061.16844239  .00041143  00000-0  25847-2 0  9991","REF_FRAME":"TEME","MEAN_MOTION_DOT":"0.00041143","EPHEMERIS_TYPE":"0","PERIAPSIS":"538.665","TLE_LINE2":"2 53427  53.2170  28.0260 0001346  65.1047 295.0085 15.08888788 32056","LAUNCH_DATE":"2022-08-10","REV_AT_EPOCH":"3205","RCS_SIZE":"LARGE","INCLINATION":"53.2170","TIME_SYSTEM":"UTC","OBJECT_NAME":"STARLINK-4541","MEAN_MOTION_DDOT":"0.0000000000000","ECCENTRICITY":"0.00013460","ARG_OF_PERICENTER":"65.1047","CENTER_NAME":"EARTH","CLASSIFICATION_TYPE":"U","ELEMENT_SET_NO":"999","MEAN_ELEMENT_THEORY":"SGP4","NORAD_CAT_ID":"53427","FILE":"3849487"},{"RA_OF_ASC_NODE":"17.6464","EPOCH":"2023-03-02T06:26:55.776768","APOAPSIS":"540.576","COUNTRY_CODE":"US","SEMIMAJOR_AXIS":"6917.774","DECAY_DATE":null,"GP_ID":"227363130","MEAN_MOTION":"15.08874817","MEAN_ANOMALY":"268.0627","OBJECT_ID":"2022-097AS","MEAN_MOTION_DOT":"0.00004074","REF_FRAME":"TEME","EPHEMERIS_TYPE":"0","OBJECT_TYPE":"PAYLOAD","SITE":"AFETR","TLE_LINE1":"1 53428U 22097AS  23061.26870112  .00004074  00000-0  27363-3 0  9990","BSTAR":"0.00027363000000","PERIOD":"95.435","CLASSIFICATION_TYPE":"U","ARG_OF_PERICENTER":"92.0520","CENTER_NAME":"EARTH","TLE_LINE2":"2 53428  53.2197  17.6464 0001354  92.0520 268.0627 15.08874817 32207","LAUNCH_DATE":"2022-08-10","PERIAPSIS":"538.702","ECCENTRICITY":"0.00013540","MEAN_MOTION_DDOT":"0.0000000000000","TIME_SYSTEM":"UTC","RCS_SIZE":"LARGE","INCLINATION":"53.2197","OBJECT_NAME":"STARLINK-4540","REV_AT_EPOCH":"3220","FILE":"3849487","ELEMENT_SET_NO":"999","NORAD_CAT_ID":"53428","MEAN_ELEMENT_THEORY":"SGP4"},{"MEAN_MOTION_DOT":"0.00046363","REF_FRAME":"TEME","EPHEMERIS_TYPE":"0","OBJECT_TYPE":"PAYLOAD","PERIOD":"95.434","BSTAR":"0.00290760000000","TLE_LINE1":"1 53429U 22097AT  23061.13993346  .00046363  00000-0  29076-2 0  9991","SITE":"AFETR","EPOCH":"2023-03-02T03:21:30.250944","RA_OF_ASC_NODE":"18.2631","SEMIMAJOR_AXIS":"6917.708","COUNTRY_CODE":"US","APOAPSIS":"540.559","MEAN_MOTION":"15.08896504","GP_ID":"227363881","DECAY_DATE":null,"OBJECT_ID":"2022-097AT","MEAN_ANOMALY":"295.1743","FILE":"3849487","ELEMENT_SET_NO":"999","NORAD_CAT_ID":"53429","MEAN_ELEMENT_THEORY":"SGP4","CENTER_NAME":"EARTH","ARG_OF_PERICENTER":"64.9397","CLASSIFICATION_TYPE":"U","TLE_LINE2":"2 53429  53.2171  18.2631 0001426  64.9397 295.1743 15.08896504 32187","LAUNCH_DATE":"2022-08-10","PERIAPSIS":"538.586","MEAN_MOTION_DDOT":"0.0000000000000","ECCENTRICITY":"0.00014260","REV_AT_EPOCH":"3218","OBJECT_NAME":"STARLINK-4543","RCS_SIZE":"LARGE","INCLINATION":"53.2171","TIME_SYSTEM":"UTC"},{"CLASSIFICATION_TYPE":"U","CENTER_NAME":"EARTH","ARG_OF_PERICENTER":"77.6731","PERIAPSIS":"538.552","TLE_LINE2":"2 53430  53.2201  17.6231 0001559  77.6731 282.4436 15.08877508 32183","LAUNCH_DATE":"2022-08-10","RCS_SIZE":"LARGE","TIME_SYSTEM":"UTC","INCLINATION":"53.2201","OBJECT_NAME":"STARLINK-4538","REV_AT_EPOCH":"3218","ECCENTRICITY":"0.00015590","MEAN_MOTION_DDOT":"0.0000000000000","FILE":"3849487","ELEMENT_SET_NO":"999","MEAN_ELEMENT_THEORY":"SGP4","NORAD_CAT_ID":"53430","APOAPSIS":"540.709","COUNTRY_CODE":"US","SEMIMAJOR_AXIS":"6917.766","RA_OF_ASC_NODE":"17.6231","EPOCH":"2023-03-02T06:21:36.800064","MEAN_ANOMALY":"282.4436","OBJECT_ID":"2022-097AU","DECAY_DATE":null,"GP_ID":"227364139","MEAN_MOTION":"15.08877508","REF_FRAME":"TEME","MEAN_MOTION_DOT":"0.00002468","EPHEMERIS_TYPE":"0","OBJECT_TYPE":"PAYLOAD","TLE_LINE1":"1 53430U 22097AU  23061.26500926  .00002468  00000-0  17291-3 0  9990","SITE":"AFETR","BSTAR":"0.00017291000000","PERIOD":"95.435"},{"OBJECT_TYPE":"PAYLOAD","TLE_LINE1":"1 53431U 22097AV  23061.80325536  .00008472  00000-0  54943-3 0  9999","SITE":"AFETR","BSTAR":"0.00054943000000","PERIOD":"95.436","MEAN_MOTION_DOT":"0.00008472","REF_FRAME":"TEME","EPHEMERIS_TYPE":"0","RA_OF_ASC_NODE":"15.2939","EPOCH":"2023-03-02T19:16:41.263104","APOAPSIS":"540.324","SEMIMAJOR_AXIS":"6917.821","COUNTRY_CODE":"US","GP_ID":"227364883","DECAY_DATE":null,"MEAN_MOTION":"15.08859456","MEAN_ANOMALY":"278.5225","OBJECT_ID":"2022-097AV","ELEMENT_SET_NO":"999","NORAD_CAT_ID":"53431","MEAN_ELEMENT_THEORY":"SGP4","FILE":"3849487","TLE_LINE2":"2 53431  53.2203  15.2939 0000922  81.5871 278.5225 15.08859456 32282","LAUNCH_DATE":"2022-08-10","PERIAPSIS":"539.048","ECCENTRICITY":"0.00009220","MEAN_MOTION_DDOT":"0.0000000000000","RCS_SIZE":"LARGE","TIME_SYSTEM":"UTC","INCLINATION":"53.2203","OBJECT_NAME":"STARLINK-4548","REV_AT_EPOCH":"3228","CLASSIFICATION_TYPE":"U","CENTER_NAME":"EARTH","ARG_OF_PERICENTER":"81.5871"},{"EPOCH":"2023-03-02T05:44:31.430688","RA_OF_ASC_NODE":"17.4691","COUNTRY_CODE":"US","SEMIMAJOR_AXIS":"6917.773","APOAPSIS":"540.379","MEAN_MOTION":"15.08875169","GP_ID":"227363138","DECAY_DATE":null,"OBJECT_ID":"2022-097AW","MEAN_ANOMALY":"236.8948","OBJECT_TYPE":"PAYLOAD","PERIOD":"95.435","BSTAR":"0.00201230000000","SITE":"AFETR","TLE_LINE1":"1 53432U 22097AW  23061.23925267  .00031914  00000-0  20123-2 0  9993","MEAN_MOTION_DOT":"0.00031914","REF_FRAME":"TEME","EPHEMERIS_TYPE":"0","LAUNCH_DATE":"2022-08-10","TLE_LINE2":"2 53432  53.2170  17.4691 0001072 123.2147 236.8948 15.08875169 32202","PERIAPSIS":"538.896","MEAN_MOTION_DDOT":"0.0000000000000","ECCENTRICITY":"0.00010720","REV_AT_EPOCH":"3220","RCS_SIZE":"LARGE","INCLINATION":"53.2170","OBJECT_NAME":"STARLINK-4557","TIME_SYSTEM":"UTC","ARG_OF_PERICENTER":"123.2147","CENTER_NAME":"EARTH","CLASSIFICATION_TYPE":"U","ELEMENT_SET_NO":"999","NORAD_CAT_ID":"53432","MEAN_ELEMENT_THEORY":"SGP4","FILE":"3849487"},{"ELEMENT_SET_NO":"999","MEAN_ELEMENT_THEORY":"SGP4","NORAD_CAT_ID":"53433","FILE":"3849487","PERIAPSIS":"539.066","LAUNCH_DATE":"2022-08-10","TLE_LINE2":"2 53433  53.2182  17.8952 0000995  97.8632 262.2473 15.08836931 32174","REV_AT_EPOCH":"3217","RCS_SIZE":"LARGE","OBJECT_NAME":"STARLINK-4549","INCLINATION":"53.2182","TIME_SYSTEM":"UTC","MEAN_MOTION_DDOT":"0.0000000000000","ECCENTRICITY":"0.00009950","ARG_OF_PERICENTER":"97.8632","CENTER_NAME":"EARTH","CLASSIFICATION_TYPE":"U","OBJECT_TYPE":"PAYLOAD","BSTAR":"0.00301770000000","PERIOD":"95.438","SITE":"AFETR","TLE_LINE1":"1 53433U 22097AX  23061.19513316  .00048062  00000-0  30177-2 0  9999","REF_FRAME":"TEME","MEAN_MOTION_DOT":"0.00048062","EPHEMERIS_TYPE":"0","SEMIMAJOR_AXIS":"6917.890","COUNTRY_CODE":"US","APOAPSIS":"540.443","EPOCH":"2023-03-02T04:40:59.505024","RA_OF_ASC_NODE":"17.8952","OBJECT_ID":"2022-097AX","MEAN_ANOMALY":"262.2473","MEAN_MOTION":"15.08836931","DECAY_DATE":null,"GP_ID":"227363388"}];
